$$SOE
2461295.500000000, A.D. 2026-Sep-12 00:00:00.0000, 2.986820775043357E+08, -6.585061087027678E+08, 5.898401048226029E+06,
2461302.500000000, A.D. 2026-Sep-19 00:00:00.0000, 3.052227923207254E+08, -6.553256679522021E+08, 5.970519579862088E+06,
2461309.500000000, A.D. 2026-Sep-26 00:00:00.0000, 3.117243135159770E+08, -6.520610635363982E+08, 6.041870815368980E+06,
2461316.500000000, A.D. 2026-Oct-03 00:00:00.0000, 3.181857754563251E+08, -6.487126552580717E+08, 6.112445081291258E+06,
2461323.500000000, A.D. 2026-Oct-10 00:00:00.0000, 3.246063134905906E+08, -6.452808076461254E+08, 6.182232696629852E+06,
2461330.500000000, A.D. 2026-Oct-17 00:00:00.0000, 3.309850638081049E+08, -6.417658899532954E+08, 6.251223977343202E+06,
2461337.500000000, A.D. 2026-Oct-24 00:00:00.0000, 3.373211632873012E+08, -6.381682762531861E+08, 6.319409233230054E+06,
2461344.500000000, A.D. 2026-Oct-31 00:00:00.0000, 3.436137494337078E+08, -6.344883457032621E+08, 6.386778742802322E+06,
2461351.500000000, A.D. 2026-Nov-07 00:00:00.0000, 3.498619607464506E+08, -6.307264828996451E+08, 6.453322681265771E+06,
2461358.500000000, A.D. 2026-Nov-14 00:00:00.0000, 3.560649377142385E+08, -6.268830774363986E+08, 6.519031055920899E+06,
2461365.500000000, A.D. 2026-Nov-21 00:00:00.0000, 3.622218226290711E+08, -6.229585219876059E+08, 6.583893871132195E+06,
2461372.500000000, A.D. 2026-Nov-28 00:00:00.0000, 3.683317572193568E+08, -6.189532119202287E+08, 6.647901368833780E+06,
2461379.500000000, A.D. 2026-Dec-05 00:00:00.0000, 3.743938817219180E+08, -6.148675470937707E+08, 6.711043959208250E+06,
2461386.500000000, A.D. 2026-Dec-12 00:00:00.0000, 3.804073355579865E+08, -6.107019327357135E+08, 6.773312080938280E+06,
2461393.500000000, A.D. 2026-Dec-19 00:00:00.0000, 3.863712577260597E+08, -6.064567793864406E+08, 6.834696164921582E+06,
2461400.500000000, A.D. 2026-Dec-26 00:00:00.0000, 3.922847867692127E+08, -6.021325027818241E+08, 6.895186643802226E+06,
2461407.500000000, A.D. 2027-Jan-02 00:00:00.0000, 3.981470605924485E+08, -5.977295238645490E+08, 6.954773966591835E+06,
2461414.500000000, A.D. 2027-Jan-09 00:00:00.0000, 4.039572162464201E+08, -5.932482689042144E+08, 7.013448609424174E+06,
2461421.500000000, A.D. 2027-Jan-16 00:00:00.0000, 4.097143897117974E+08, -5.886891697176118E+08, 7.071201079995334E+06,
2461428.500000000, A.D. 2027-Jan-23 00:00:00.0000, 4.154177157288590E+08, -5.840526640289797E+08, 7.128021908241004E+06,
2461435.500000000, A.D. 2027-Jan-30 00:00:00.0000, 4.210663278584993E+08, -5.793391960181410E+08, 7.183901602085054E+06,
2461442.500000000, A.D. 2027-Feb-06 00:00:00.0000, 4.266593591979213E+08, -5.745492167166753E+08, 7.238830557004571E+06,
2461449.500000000, A.D. 2027-Feb-13 00:00:00.0000, 4.321959432893639E+08, -5.696831830328096E+08, 7.292799061201543E+06,
2461456.500000000, A.D. 2027-Feb-20 00:00:00.0000, 4.376752128566963E+08, -5.647415561964079E+08, 7.345797548386991E+06,
2461463.500000000, A.D. 2027-Feb-27 00:00:00.0000, 4.430962977646675E+08, -5.597248028377285E+08, 7.397816707301289E+06,
2461470.500000000, A.D. 2027-Mar-06 00:00:00.0000, 4.484583252183844E+08, -5.546333967772063E+08, 7.448847328052491E+06,
2461477.500000000, A.D. 2027-Mar-13 00:00:00.0000, 4.537604206027239E+08, -5.494678194769275E+08, 7.498880199346721E+06,
2461484.500000000, A.D. 2027-Mar-20 00:00:00.0000, 4.590017078322881E+08, -5.442285599886761E+08, 7.547906091829717E+06,
2461491.500000000, A.D. 2027-Mar-27 00:00:00.0000, 4.641813094139211E+08, -5.389161149476862E+08, 7.595915764023900E+06,
2461498.500000000, A.D. 2027-Apr-03 00:00:00.0000, 4.692983464246660E+08, -5.335309886599840E+08, 7.642899968248814E+06,
2461505.500000000, A.D. 2027-Apr-10 00:00:00.0000, 4.743519384663165E+08, -5.280736932603443E+08, 7.688849452720791E+06,
2461512.500000000, A.D. 2027-Apr-17 00:00:00.0000, 4.793412036184722E+08, -5.225447489551497E+08, 7.733754956578791E+06,
2461519.500000000, A.D. 2027-Apr-24 00:00:00.0000, 4.842652584691610E+08, -5.169446844121368E+08, 7.777607185440868E+06,
2461526.500000000, A.D. 2027-May-01 00:00:00.0000, 4.891232185226699E+08, -5.112740372689350E+08, 7.820396742248714E+06,
2461533.500000000, A.D. 2027-May-08 00:00:00.0000, 4.939141992922851E+08, -5.055333540118533E+08, 7.862114046374232E+06,
2461540.500000000, A.D. 2027-May-15 00:00:00.0000, 4.986373165815156E+08, -4.997231882716862E+08, 7.902749456246138E+06,
2461547.500000000, A.D. 2027-May-22 00:00:00.0000, 5.032916843901457E+08, -4.938441001284533E+08, 7.942293527179122E+06,
2461554.500000000, A.D. 2027-May-29 00:00:00.0000, 5.078764138010392E+08, -4.878966578933653E+08, 7.980736976672798E+06,
2461561.500000000, A.D. 2027-Jun-05 00:00:00.0000, 5.123906137327613E+08, -4.818814392362967E+08, 8.018070532052696E+06,
2461568.500000000, A.D. 2027-Jun-12 00:00:00.0000, 5.168333915507759E+08, -4.757990312272488E+08, 8.054284880005956E+06,
2461575.500000000, A.D. 2027-Jun-19 00:00:00.0000, 5.212038532063319E+08, -4.696500302270687E+08, 8.089370672118723E+06,
2461582.500000000, A.D. 2027-Jun-26 00:00:00.0000, 5.255011031825126E+08, -4.634350418888962E+08, 8.123318539624780E+06,
2461589.500000000, A.D. 2027-Jul-03 00:00:00.0000, 5.297242443796339E+08, -4.571546812621463E+08, 8.156119106137037E+06,
2461596.500000000, A.D. 2027-Jul-10 00:00:00.0000, 5.338723779768690E+08, -4.508095729903842E+08, 8.187762995932609E+06,
2461603.500000000, A.D. 2027-Jul-17 00:00:00.0000, 5.379446033064576E+08, -4.444003516420009E+08, 8.218240831522644E+06,
2461610.500000000, A.D. 2027-Jul-24 00:00:00.0000, 5.419400178969100E+08, -4.379276622364562E+08, 8.247543201256990E+06,
2461617.500000000, A.D. 2027-Jul-31 00:00:00.0000, 5.458577180967225E+08, -4.313921607304654E+08, 8.275660578690827E+06,
2461624.500000000, A.D. 2027-Aug-07 00:00:00.0000, 5.496968000781875E+08, -4.247945133124288E+08, 8.302583306445241E+06,
2461631.500000000, A.D. 2027-Aug-14 00:00:00.0000, 5.534563589204757E+08, -4.181353947587097E+08, 8.328301835058481E+06,
2461638.500000000, A.D. 2027-Aug-21 00:00:00.0000, 5.571354863901066E+08, -4.114154892160989E+08, 8.352806885216683E+06,
2461645.500000000, A.D. 2027-Aug-28 00:00:00.0000, 5.607332708497353E+08, -4.046354922069911E+08, 8.376089316944301E+06,
2461652.500000000, A.D. 2027-Sep-04 00:00:00.0000, 5.642487981143701E+08, -3.977961113547875E+08, 8.398140018454760E+06,
2461659.500000000, A.D. 2027-Sep-11 00:00:00.0000, 5.676811518600926E+08, -3.908980664908901E+08, 8.418949888408989E+06,
2461666.500000000, A.D. 2027-Sep-18 00:00:00.0000, 5.710294137187937E+08, -3.839420897934613E+08, 8.438509845999882E+06,
2461673.500000000, A.D. 2027-Sep-25 00:00:00.0000, 5.742926632881063E+08, -3.769289260354531E+08, 8.456810841273069E+06,
2461680.500000000, A.D. 2027-Oct-02 00:00:00.0000, 5.774699781319155E+08, -3.698593329141430E+08, 8.473843860793754E+06,
2461687.500000000, A.D. 2027-Oct-09 00:00:00.0000, 5.805604337942544E+08, -3.627340814664347E+08, 8.489599925983831E+06,
2461694.500000000, A.D. 2027-Oct-16 00:00:00.0000, 5.835631038900663E+08, -3.555539566245142E+08, 8.504070073619828E+06,
2461701.500000000, A.D. 2027-Oct-23 00:00:00.0000, 5.864770605330114E+08, -3.483197579171786E+08, 8.517245293991968E+06,
2461708.500000000, A.D. 2027-Oct-30 00:00:00.0000, 5.893013754754919E+08, -3.410322997060887E+08, 8.529116442093819E+06,
2461715.500000000, A.D. 2027-Nov-06 00:00:00.0000, 5.920351207981943E+08, -3.336924098286471E+08, 8.539674320688739E+06,
2461722.500000000, A.D. 2027-Nov-13 00:00:00.0000, 5.946773671643282E+08, -3.263009287239446E+08, 8.548909947650433E+06,
2461729.500000000, A.D. 2027-Nov-20 00:00:00.0000, 5.972271825404537E+08, -3.188587112277172E+08, 8.556814562757671E+06,
2461736.500000000, A.D. 2027-Nov-27 00:00:00.0000, 5.996836330015105E+08, -3.113666280716068E+08, 8.563379467851251E+06,
2461743.500000000, A.D. 2027-Dec-04 00:00:00.0000, 6.020457835967956E+08, -3.038255661727195E+08, 8.568595960680410E+06,
2461750.500000000, A.D. 2027-Dec-11 00:00:00.0000, 6.043126987265446E+08, -2.962364286774579E+08, 8.572455334214881E+06,
2461757.500000000, A.D. 2027-Dec-18 00:00:00.0000, 6.064834423042071E+08, -2.886001350986047E+08, 8.574948888556808E+06,
2461764.500000000, A.D. 2027-Dec-25 00:00:00.0000, 6.085570778565576E+08, -2.809176215475444E+08, 8.576067941406712E+06,
2461771.500000000, A.D. 2028-Jan-01 00:00:00.0000, 6.105326686033959E+08, -2.731898410467146E+08, 8.575803834574297E+06,
$$EOE